{
  "type": "FeatureCollection",
  "features": [
    {
      "type": "Feature",
      "properties": {
        "norad_id": 40894,
        "name": "GAOFEN-9 01",
        "group": "resource",
        "lat": 81.03115022792679,
        "lon": -34.61356813864701,
        "alt_km": 600.0996111718259,
        "timestamp": "2025-12-10T18:56:59.719181+00:00",
        "meta_object_name": "GAOFEN-9 01",
        "meta_object_id": "2015-047A",
        "meta_epoch": "2025-12-10T12:05:18.949920",
        "meta_mean_motion": 14.82413361,
        "meta_eccentricity": 0.0028557,
        "meta_inclination": 97.6545,
        "meta_ra_of_asc_node": 23.5557,
        "meta_arg_of_pericenter": 41.3664,
        "meta_mean_anomaly": 318.9705,
        "meta_ephemeris_type": 0,
        "meta_classification_type": "U",
        "meta_norad_cat_id": 40894,
        "meta_element_set_no": 999,
        "meta_rev_at_epoch": 55223,
        "meta_bstar": 0.00023576,
        "meta_mean_motion_dot": 1.851e-05,
        "meta_mean_motion_ddot": 0,
        "tle_line1": "1 40894U 15047A   25344.50369155  .00001851  00000+0  23576-3 0  9994",
        "tle_line2": "2 40894  97.6545  23.5557 0028557  41.3664 318.9705 14.82413361552234"
      },
      "geometry": {
        "type": "Point",
        "coordinates": [
          -34.61356813864701,
          81.03115022792679
        ]
      }
    },
    {
      "type": "Feature",
      "properties": {
        "norad_id": 41026,
        "name": "YAOGAN-28",
        "group": "resource",
        "lat": -56.60029812680551,
        "lon": 133.8170418198775,
        "alt_km": 508.33705389641636,
        "timestamp": "2025-12-10T18:56:59.719191+00:00",
        "meta_object_name": "YAOGAN-28",
        "meta_object_id": "2015-064A",
        "meta_epoch": "2025-12-10T12:53:58.149312",
        "meta_mean_motion": 15.24292486,
        "meta_eccentricity": 0.0012292,
        "meta_inclination": 97.2806,
        "meta_ra_of_asc_node": 122.392,
        "meta_arg_of_pericenter": 133.2301,
        "meta_mean_anomaly": 226.9965,
        "meta_ephemeris_type": 0,
        "meta_classification_type": "U",
        "meta_norad_cat_id": 41026,
        "meta_element_set_no": 999,
        "meta_rev_at_epoch": 56191,
        "meta_bstar": 0.00056284,
        "meta_mean_motion_dot": 0.00013724,
        "meta_mean_motion_ddot": 0,
        "tle_line1": "1 41026U 15064A   25344.53747858  .00013724  00000+0  56284-3 0  9998",
        "tle_line2": "2 41026  97.2806 122.3920 0012292 133.2301 226.9965 15.24292486561919"
      },
      "geometry": {
        "type": "Point",
        "coordinates": [
          133.8170418198775,
          -56.60029812680551
        ]
      }
    },
    {
      "type": "Feature",
      "properties": {
        "norad_id": 41038,
        "name": "YAOGAN-29",
        "group": "resource",
        "lat": -30.149793399353936,
        "lon": 12.653213956354673,
        "alt_km": 625.9816296596327,
        "timestamp": "2025-12-10T18:56:59.719201+00:00",
        "meta_object_name": "YAOGAN-29",
        "meta_object_id": "2015-069A",
        "meta_epoch": "2025-12-10T12:36:33.259680",
        "meta_mean_motion": 14.82878709,
        "meta_eccentricity": 3.87e-05,
        "meta_inclination": 98.0219,
        "meta_ra_of_asc_node": 7.6896,
        "meta_arg_of_pericenter": 348.7181,
        "meta_mean_anomaly": 11.4023,
        "meta_ephemeris_type": 0,
        "meta_classification_type": "U",
        "meta_norad_cat_id": 41038,
        "meta_element_set_no": 999,
        "meta_rev_at_epoch": 54266,
        "meta_bstar": 7.9496e-05,
        "meta_mean_motion_dot": 5.9e-06,
        "meta_mean_motion_ddot": 0,
        "tle_line1": "1 41038U 15069A   25344.52538495  .00000590  00000+0  79496-4 0  9998",
        "tle_line2": "2 41038  98.0219   7.6896 0000387 348.7181  11.4023 14.82878709542661"
      },
      "geometry": {
        "type": "Point",
        "coordinates": [
          12.653213956354673,
          -30.149793399353936
        ]
      }
    },
    {
      "type": "Feature",
      "properties": {
        "norad_id": 41167,
        "name": "KENT RIDGE 1",
        "group": "resource",
        "lat": -14.94038729076455,
        "lon": 132.00799778594416,
        "alt_km": 505.55626361739724,
        "timestamp": "2025-12-10T18:56:59.719211+00:00",
        "meta_object_name": "KENT RIDGE 1",
        "meta_object_id": "2015-077B",
        "meta_epoch": "2025-12-10T08:20:47.378112",
        "meta_mean_motion": 15.21606581,
        "meta_eccentricity": 0.0008539,
        "meta_inclination": 14.9787,
        "meta_ra_of_asc_node": 228.8902,
        "meta_arg_of_pericenter": 96.8813,
        "meta_mean_anomaly": 263.248,
        "meta_ephemeris_type": 0,
        "meta_classification_type": "U",
        "meta_norad_cat_id": 41167,
        "meta_element_set_no": 999,
        "meta_rev_at_epoch": 55227,
        "meta_bstar": 0.00026181,
        "meta_mean_motion_dot": 6.854e-05,
        "meta_mean_motion_ddot": 0,
        "tle_line1": "1 41167U 15077B   25344.34777058  .00006854  00000+0  26181-3 0  9991",
        "tle_line2": "2 41167  14.9787 228.8902 0008539  96.8813 263.2480 15.21606581552279"
      },
      "geometry": {
        "type": "Point",
        "coordinates": [
          132.00799778594416,
          -14.94038729076455
        ]
      }
    },
    {
      "type": "Feature",
      "properties": {
        "norad_id": 41194,
        "name": "GAOFEN-4",
        "group": "resource",
        "lat": 0.09456465360735597,
        "lon": 109.6670298109485,
        "alt_km": 35783.390126182334,
        "timestamp": "2025-12-10T18:56:59.719223+00:00",
        "meta_object_name": "GAOFEN-4",
        "meta_object_id": "2015-083A",
        "meta_epoch": "2025-12-10T12:30:49.584672",
        "meta_mean_motion": 1.00270326,
        "meta_eccentricity": 0.0003573,
        "meta_inclination": 0.1651,
        "meta_ra_of_asc_node": 80.7667,
        "meta_arg_of_pericenter": 106.7467,
        "meta_mean_anomaly": 185.3918,
        "meta_ephemeris_type": 0,
        "meta_classification_type": "U",
        "meta_norad_cat_id": 41194,
        "meta_element_set_no": 999,
        "meta_rev_at_epoch": 3663,
        "meta_bstar": 0,
        "meta_mean_motion_dot": -3.31e-06,
        "meta_mean_motion_ddot": 0,
        "tle_line1": "1 41194U 15083A   25344.52140723 -.00000331  00000+0  00000+0 0  9994",
        "tle_line2": "2 41194   0.1651  80.7667 0003573 106.7467 185.3918  1.00270326 36631"
      },
      "geometry": {
        "type": "Point",
        "coordinates": [
          109.6670298109485,
          0.09456465360735597
        ]
      }
    },
    {
      "type": "Feature",
      "properties": {
        "norad_id": 41240,
        "name": "JASON-3",
        "group": "resource",
        "lat": -65.90601893277396,
        "lon": 78.0239661288473,
        "alt_km": 1311.8248542193714,
        "timestamp": "2025-12-10T18:56:59.719234+00:00",
        "meta_object_name": "JASON-3",
        "meta_object_id": "2016-002A",
        "meta_epoch": "2025-12-10T11:56:48.647328",
        "meta_mean_motion": 12.87626413,
        "meta_eccentricity": 0.0007154,
        "meta_inclination": 66.0389,
        "meta_ra_of_asc_node": 162.5377,
        "meta_arg_of_pericenter": 270.6547,
        "meta_mean_anomaly": 89.3652,
        "meta_ephemeris_type": 0,
        "meta_classification_type": "U",
        "meta_norad_cat_id": 41240,
        "meta_element_set_no": 999,
        "meta_rev_at_epoch": 46295,
        "meta_bstar": 8.4615e-05,
        "meta_mean_motion_dot": -4.1e-07,
        "meta_mean_motion_ddot": 0,
        "tle_line1": "1 41240U 16002A   25344.49778527 -.00000041  00000+0  84615-4 0  9990",
        "tle_line2": "2 41240  66.0389 162.5377 0007154 270.6547  89.3652 12.87626413462953"
      },
      "geometry": {
        "type": "Point",
        "coordinates": [
          78.0239661288473,
          -65.90601893277396
        ]
      }
    },
    {
      "type": "Feature",
      "properties": {
        "norad_id": 41335,
        "name": "SENTINEL-3A",
        "group": "resource",
        "lat": 61.11059820791455,
        "lon": 33.86777407672983,
        "alt_km": 796.0701367557022,
        "timestamp": "2025-12-10T18:56:59.719244+00:00",
        "meta_object_name": "SENTINEL-3A",
        "meta_object_id": "2016-011A",
        "meta_epoch": "2025-12-10T11:55:35.268672",
        "meta_mean_motion": 14.26745314,
        "meta_eccentricity": 9.52e-05,
        "meta_inclination": 98.621,
        "meta_ra_of_asc_node": 49.5379,
        "meta_arg_of_pericenter": 93.7291,
        "meta_mean_anomaly": 266.3998,
        "meta_ephemeris_type": 0,
        "meta_classification_type": "U",
        "meta_norad_cat_id": 41335,
        "meta_element_set_no": 999,
        "meta_rev_at_epoch": 51115,
        "meta_bstar": 0.00011566,
        "meta_mean_motion_dot": 2.36e-06,
        "meta_mean_motion_ddot": 0,
        "tle_line1": "1 41335U 16011A   25344.49693598  .00000236  00000+0  11566-3 0  9998",
        "tle_line2": "2 41335  98.6210  49.5379 0000952  93.7291 266.3998 14.26745314511151"
      },
      "geometry": {
        "type": "Point",
        "coordinates": [
          33.86777407672983,
          61.11059820791455
        ]
      }
    }
  ]
}